CCSDS_OMM_VERS = 2.0
CREATION_DATE  = 
ORIGINATOR     = 

OBJECT_NAME    = SL-4 R/B
OBJECT_ID      = 2014-021B
CENTER_NAME    = EARTH
REF_FRAME      = TEME
TIME_SYSTEM    = UTC
MEAN_ELEMENT_THEORY = SGP/SGP4

EPOCH          = 2025-12-03T12:14:43.293984
MEAN_MOTION    = 15.36308154
ECCENTRICITY   = .01025828
INCLINATION    = 51.6074
RA_OF_ASC_NODE = 85.4364
ARG_OF_PERICENTER = 113.0130
MEAN_ANOMALY   = 248.1711

EPHEMERIS_TYPE = 0
CLASSIFICATION_TYPE = U
NORAD_CAT_ID   = 39679
ELEMENT_SET_NO = 999
REV_AT_EPOCH   = 64147
BSTAR          = .45498639E-3
MEAN_MOTION_DOT = .19126E-3
MEAN_MOTION_DDOT = 0

CCSDS_OMM_VERS = 2.0
CREATION_DATE  = 
ORIGINATOR     = 

OBJECT_NAME    = ALOS-2
OBJECT_ID      = 2014-029A
CENTER_NAME    = EARTH
REF_FRAME      = TEME
TIME_SYSTEM    = UTC
MEAN_ELEMENT_THEORY = SGP/SGP4

EPOCH          = 2025-12-03T22:49:00.657120
MEAN_MOTION    = 14.79455072
ECCENTRICITY   = .00015277
INCLINATION    = 97.9237
RA_OF_ASC_NODE = 72.9222
ARG_OF_PERICENTER = 108.2088
MEAN_ANOMALY   = 251.9290

EPHEMERIS_TYPE = 0
CLASSIFICATION_TYPE = U
NORAD_CAT_ID   = 39766
ELEMENT_SET_NO = 999
REV_AT_EPOCH   = 62271
BSTAR          = .58642782E-3
MEAN_MOTION_DOT = .4329E-4
MEAN_MOTION_DDOT = 0

CCSDS_OMM_VERS = 2.0
CREATION_DATE  = 
ORIGINATOR     = 

OBJECT_NAME    = YAOGAN-29
OBJECT_ID      = 2015-069A
CENTER_NAME    = EARTH
REF_FRAME      = TEME
TIME_SYSTEM    = UTC
MEAN_ELEMENT_THEORY = SGP/SGP4

EPOCH          = 2025-12-04T04:22:46.355808
MEAN_MOTION    = 14.82868214
ECCENTRICITY   = .0000704
INCLINATION    = 98.0227
RA_OF_ASC_NODE = 1.3264
ARG_OF_PERICENTER = 4.2145
MEAN_ANOMALY   = 355.9074

EPHEMERIS_TYPE = 0
CLASSIFICATION_TYPE = U
NORAD_CAT_ID   = 41038
ELEMENT_SET_NO = 999
REV_AT_EPOCH   = 54172
BSTAR          = .12958E-3
MEAN_MOTION_DOT = .995E-5
MEAN_MOTION_DDOT = 0

CCSDS_OMM_VERS = 2.0
CREATION_DATE  = 
ORIGINATOR     = 

OBJECT_NAME    = ASTRO-H (HITOMI)
OBJECT_ID      = 2016-012A
CENTER_NAME    = EARTH
REF_FRAME      = TEME
TIME_SYSTEM    = UTC
MEAN_ELEMENT_THEORY = SGP/SGP4

EPOCH          = 2025-12-04T02:13:45.434208
MEAN_MOTION    = 15.09266666
ECCENTRICITY   = .0009461
INCLINATION    = 30.9999
RA_OF_ASC_NODE = 253.1139
ARG_OF_PERICENTER = 91.0212
MEAN_ANOMALY   = 269.1510

EPHEMERIS_TYPE = 0
CLASSIFICATION_TYPE = U
NORAD_CAT_ID   = 41337
ELEMENT_SET_NO = 999
REV_AT_EPOCH   = 53777
BSTAR          = .38189E-3
MEAN_MOTION_DOT = .6332E-4
MEAN_MOTION_DDOT = 0

CCSDS_OMM_VERS = 2.0
CREATION_DATE  = 
ORIGINATOR     = 

OBJECT_NAME    = HXMT (HUIYAN)
OBJECT_ID      = 2017-034A
CENTER_NAME    = EARTH
REF_FRAME      = TEME
TIME_SYSTEM    = UTC
MEAN_ELEMENT_THEORY = SGP/SGP4

EPOCH          = 2025-12-04T00:41:43.992096
MEAN_MOTION    = 15.16138726
ECCENTRICITY   = .0032774
INCLINATION    = 43.0123
RA_OF_ASC_NODE = 187.9640
ARG_OF_PERICENTER = 347.7033
MEAN_ANOMALY   = 12.3012

EPHEMERIS_TYPE = 0
CLASSIFICATION_TYPE = U
NORAD_CAT_ID   = 42758
ELEMENT_SET_NO = 999
REV_AT_EPOCH   = 46801
BSTAR          = .46925E-3
MEAN_MOTION_DOT = .9109E-4
MEAN_MOTION_DDOT = 0

CCSDS_OMM_VERS = 2.0
CREATION_DATE  = 
ORIGINATOR     = 

OBJECT_NAME    = CZ-2C R/B
OBJECT_ID      = 2018-054D
CENTER_NAME    = EARTH
REF_FRAME      = TEME
TIME_SYSTEM    = UTC
MEAN_ELEMENT_THEORY = SGP/SGP4

EPOCH          = 2025-12-04T02:29:02.910624
MEAN_MOTION    = 15.71910345
ECCENTRICITY   = .0017165
INCLINATION    = 35.1338
RA_OF_ASC_NODE = 239.3732
ARG_OF_PERICENTER = 52.5099
MEAN_ANOMALY   = 307.7191

EPHEMERIS_TYPE = 0
CLASSIFICATION_TYPE = U
NORAD_CAT_ID   = 43521
ELEMENT_SET_NO = 999
REV_AT_EPOCH   = 41369
BSTAR          = .10936E-2
MEAN_MOTION_DOT = .151724E-2
MEAN_MOTION_DDOT = 0

CCSDS_OMM_VERS = 2.0
CREATION_DATE  = 
ORIGINATOR     = 

OBJECT_NAME    = SAOCOM 1A
OBJECT_ID      = 2018-076A
CENTER_NAME    = EARTH
REF_FRAME      = TEME
TIME_SYSTEM    = UTC
MEAN_ELEMENT_THEORY = SGP/SGP4

EPOCH          = 2025-12-04T03:58:25.147776
MEAN_MOTION    = 14.82163429
ECCENTRICITY   = .000156
INCLINATION    = 97.8847
RA_OF_ASC_NODE = 162.7127
ARG_OF_PERICENTER = 85.9330
MEAN_ANOMALY   = 274.2061

EPHEMERIS_TYPE = 0
CLASSIFICATION_TYPE = U
NORAD_CAT_ID   = 43641
ELEMENT_SET_NO = 999
REV_AT_EPOCH   = 38721
BSTAR          = .13379E-3
MEAN_MOTION_DOT = .1013E-4
MEAN_MOTION_DDOT = 0

CCSDS_OMM_VERS = 2.0
CREATION_DATE  = 
ORIGINATOR     = 

OBJECT_NAME    = H-2A R/B
OBJECT_ID      = 2018-084L
CENTER_NAME    = EARTH
REF_FRAME      = TEME
TIME_SYSTEM    = UTC
MEAN_ELEMENT_THEORY = SGP/SGP4

EPOCH          = 2025-12-04T02:23:40.247232
MEAN_MOTION    = 15.36899658
ECCENTRICITY   = .0028023
INCLINATION    = 98.8775
RA_OF_ASC_NODE = 170.3908
ARG_OF_PERICENTER = 356.1920
MEAN_ANOMALY   = 3.9102

EPHEMERIS_TYPE = 0
CLASSIFICATION_TYPE = U
NORAD_CAT_ID   = 43682
ELEMENT_SET_NO = 999
REV_AT_EPOCH   = 39107
BSTAR          = .95691E-3
MEAN_MOTION_DOT = .34994E-3
MEAN_MOTION_DDOT = 0

CCSDS_OMM_VERS = 2.0
CREATION_DATE  = 
ORIGINATOR     = 

OBJECT_NAME    = SAOCOM 1B
OBJECT_ID      = 2020-059A
CENTER_NAME    = EARTH
REF_FRAME      = TEME
TIME_SYSTEM    = UTC
MEAN_ELEMENT_THEORY = SGP/SGP4

EPOCH          = 2025-12-04T04:43:24.239712
MEAN_MOTION    = 14.82145454
ECCENTRICITY   = .0001275
INCLINATION    = 97.8843
RA_OF_ASC_NODE = 161.8445
ARG_OF_PERICENTER = 86.6489
MEAN_ANOMALY   = 273.4870

EPHEMERIS_TYPE = 0
CLASSIFICATION_TYPE = U
NORAD_CAT_ID   = 46265
ELEMENT_SET_NO = 999
REV_AT_EPOCH   = 28460
BSTAR          = .13161E-3
MEAN_MOTION_DOT = .995E-5
MEAN_MOTION_DDOT = 0

CCSDS_OMM_VERS = 2.0
CREATION_DATE  = 
ORIGINATOR     = 

OBJECT_NAME    = CSS (TIANHE)
OBJECT_ID      = 2021-035A
CENTER_NAME    = EARTH
REF_FRAME      = TEME
TIME_SYSTEM    = UTC
MEAN_ELEMENT_THEORY = SGP/SGP4

EPOCH          = 2025-12-04T03:07:16.567104
MEAN_MOTION    = 15.58626502
ECCENTRICITY   = .0009979
INCLINATION    = 41.4681
RA_OF_ASC_NODE = 68.9550
ARG_OF_PERICENTER = 324.5807
MEAN_ANOMALY   = 35.4367

EPHEMERIS_TYPE = 0
CLASSIFICATION_TYPE = U
NORAD_CAT_ID   = 48274
ELEMENT_SET_NO = 999
REV_AT_EPOCH   = 26268
BSTAR          = .45303E-3
MEAN_MOTION_DOT = .35664E-3
MEAN_MOTION_DDOT = 0

CCSDS_OMM_VERS = 2.0
CREATION_DATE  = 
ORIGINATOR     = 

OBJECT_NAME    = COSMOS 2550
OBJECT_ID      = 2021-056A
CENTER_NAME    = EARTH
REF_FRAME      = TEME
TIME_SYSTEM    = UTC
MEAN_ELEMENT_THEORY = SGP/SGP4

EPOCH          = 2025-12-04T04:24:45.371808
MEAN_MOTION    = 15.33839386
ECCENTRICITY   = .0008368
INCLINATION    = 67.1456
RA_OF_ASC_NODE = 329.8141
ARG_OF_PERICENTER = 269.1703
MEAN_ANOMALY   = 90.8493

EPHEMERIS_TYPE = 0
CLASSIFICATION_TYPE = U
NORAD_CAT_ID   = 48865
ELEMENT_SET_NO = 999
REV_AT_EPOCH   = 24881
BSTAR          = .36207E-5
MEAN_MOTION_DOT = -.73E-6
MEAN_MOTION_DDOT = 0

CCSDS_OMM_VERS = 2.0
CREATION_DATE  = 
ORIGINATOR     = 

OBJECT_NAME    = CZ-2C R/B
OBJECT_ID      = 2022-058K
CENTER_NAME    = EARTH
REF_FRAME      = TEME
TIME_SYSTEM    = UTC
MEAN_ELEMENT_THEORY = SGP/SGP4

EPOCH          = 2025-12-03T07:39:43.296768
MEAN_MOTION    = 15.47789762
ECCENTRICITY   = .0046544
INCLINATION    = 50.1901
RA_OF_ASC_NODE = 91.5665
ARG_OF_PERICENTER = 159.6094
MEAN_ANOMALY   = 200.6745

EPHEMERIS_TYPE = 0
CLASSIFICATION_TYPE = U
NORAD_CAT_ID   = 52794
ELEMENT_SET_NO = 999
REV_AT_EPOCH   = 19517
BSTAR          = .64436E-3
MEAN_MOTION_DOT = .3525E-3
MEAN_MOTION_DDOT = 0

