SL-4 R/B                
1 39679U 14021B   25337.51022331  .00019126  00000+0  45499-3 0  9991
2 39679  51.6074  85.4364 0102582 113.0130 248.1711 15.36308154641478
ALOS-2                  
1 39766U 14029A   25337.95070205  .00004329  00000+0  58643-3 0  9991
2 39766  97.9237  72.9222 0001527 108.2088 251.9290 14.79455072622716
YAOGAN-29               
1 41038U 15069A   25338.18248097  .00000995  00000+0  12958-3 0  9997
2 41038  98.0227   1.3264 0000704   4.2145 355.9074 14.82868214541725
ASTRO-H (HITOMI)        
1 41337U 16012A   25338.09288697  .00006332  00000+0  38189-3 0  9993
2 41337  30.9999 253.1139 0009461  91.0212 269.1510 15.09266666537778
HXMT (HUIYAN)           
1 42758U 17034A   25338.02898139  .00009109  00000+0  46925-3 0  9999
2 42758  43.0123 187.9640 0032774 347.7033  12.3012 15.16138726468014
CZ-2C R/B               
1 43521U 18054D   25338.10350591  .00151724  00000+0  10936-2 0  9998
2 43521  35.1338 239.3732 0017165  52.5099 307.7191 15.71910345413696
SAOCOM 1A               
1 43641U 18076A   25338.16556884  .00001013  00000+0  13379-3 0  9994
2 43641  97.8847 162.7127 0001560  85.9330 274.2061 14.82163429387212
H-2A R/B                
1 43682U 18084L   25338.09977138  .00034994  00000+0  95691-3 0  9990
2 43682  98.8775 170.3908 0028023 356.1920   3.9102 15.36899658391073
SAOCOM 1B               
1 46265U 20059A   25338.19680833  .00000995  00000+0  13161-3 0  9995
2 46265  97.8843 161.8445 0001275  86.6489 273.4870 14.82145454284608
CSS (TIANHE)            
1 48274U 21035A   25338.13005286  .00035664  00000+0  45303-3 0  9993
2 48274  41.4681  68.9550 0009979 324.5807  35.4367 15.58626502262689
COSMOS 2550             
1 48865U 21056A   25338.18385847 -.00000073  00000+0  36207-5 0  9993
2 48865  67.1456 329.8141 0008368 269.1703  90.8493 15.33839386248818
CZ-2C R/B               
1 52794U 22058K   25337.31925112  .00035250  00000+0  64436-3 0  9998
2 52794  50.1901  91.5665 0046544 159.6094 200.6745 15.47789762195177
